$$SOE
2460728.500000000, A.D. 2025-Feb-22 00:00:00.0000, 4.968667178265379E+08, 1.008993812872104E+08, -9.249878932146001E+07,
2460735.500000000, A.D. 2025-Mar-01 00:00:00.0000, 4.943681015717615E+08, 1.096565084481664E+08, -9.380341112529995E+07,
2460742.500000000, A.D. 2025-Mar-08 00:00:00.0000, 4.916937593427427E+08, 1.183746358490553E+08, -9.507468575279629E+07,
2460749.500000000, A.D. 2025-Mar-15 00:00:00.0000, 4.888442399441783E+08, 1.270505696658071E+08, -9.631208314387631E+07,
2460756.500000000, A.D. 2025-Mar-22 00:00:00.0000, 4.858201375730495E+08, 1.356811136281469E+08, -9.751507897474058E+07,
2460763.500000000, A.D. 2025-Mar-29 00:00:00.0000, 4.826220914720420E+08, 1.442630673337906E+08, -9.868315482667823E+07,
2460770.500000000, A.D. 2025-Apr-05 00:00:00.0000, 4.792507873013718E+08, 1.527932254631059E+08, -9.981579844415048E+07,
2460777.500000000, A.D. 2025-Apr-12 00:00:00.0000, 4.757069583023753E+08, 1.612683779998472E+08, -1.009125038973022E+08,
2460784.500000000, A.D. 2025-Apr-19 00:00:00.0000, 4.719913860656257E+08, 1.696853105783227E+08, -1.019727717042560E+08,
2460791.500000000, A.D. 2025-Apr-26 00:00:00.0000, 4.681049011752020E+08, 1.780408047555913E+08, -1.029961089551984E+08,
2460798.500000000, A.D. 2025-May-03 00:00:00.0000, 4.640483838426513E+08, 1.863316382295154E+08, -1.039820294475636E+08,
2460805.500000000, A.D. 2025-May-10 00:00:00.0000, 4.598227645590509E+08, 1.945545850130379E+08, -1.049300538346289E+08,
2460812.500000000, A.D. 2025-May-17 00:00:00.0000, 4.554290248017572E+08, 2.027064155254059E+08, -1.058397097946351E+08,
2460819.500000000, A.D. 2025-May-24 00:00:00.0000, 4.508681979697618E+08, 2.107838965475775E+08, -1.067105322412552E+08,
2460826.500000000, A.D. 2025-May-31 00:00:00.0000, 4.461413709652927E+08, 2.187837913540559E+08, -1.075420635886585E+08,
2460833.500000000, A.D. 2025-Jun-07 00:00:00.0000, 4.412496860194978E+08, 2.267028612269507E+08, -1.083338539358528E+08,
2460840.500000000, A.D. 2025-Jun-14 00:00:00.0000, 4.361943403962944E+08, 2.345378676878863E+08, -1.090854610078053E+08,
2460847.500000000, A.D. 2025-Jun-21 00:00:00.0000, 4.309765851921268E+08, 2.422855721793928E+08, -1.097964502330819E+08,
2460854.500000000, A.D. 2025-Jun-28 00:00:00.0000, 4.255977263603472E+08, 2.499427349615394E+08, -1.104663951012952E+08,
2460861.500000000, A.D. 2025-Jul-05 00:00:00.0000, 4.200591264422809E+08, 2.575061153814551E+08, -1.110948774849623E+08,
2460868.500000000, A.D. 2025-Jul-12 00:00:00.0000, 4.143622058131554E+08, 2.649724727123878E+08, -1.116814878824816E+08,
2460875.500000000, A.D. 2025-Jul-19 00:00:00.0000, 4.085084436321263E+08, 2.723385669891109E+08, -1.122258256469111E+08,
2460882.500000000, A.D. 2025-Jul-26 00:00:00.0000, 4.024993787058880E+08, 2.796011597845916E+08, -1.127274992246261E+08,
2460889.500000000, A.D. 2025-Aug-02 00:00:00.0000, 3.963366103303544E+08, 2.867570149507605E+08, -1.131861264080400E+08,
2460896.500000000, A.D. 2025-Aug-09 00:00:00.0000, 3.900217991323433E+08, 2.938028993099747E+08, -1.136013346053975E+08,
2460903.500000000, A.D. 2025-Aug-16 00:00:00.0000, 3.835566679862607E+08, 3.007355832357092E+08, -1.139727611394052E+08,
2460910.500000000, A.D. 2025-Aug-23 00:00:00.0000, 3.769430032966217E+08, 3.075518411414884E+08, -1.143000535999336E+08,
2460917.500000000, A.D. 2025-Aug-30 00:00:00.0000, 3.701826569740541E+08, 3.142484525946881E+08, -1.145828702226366E+08,
2460924.500000000, A.D. 2025-Sep-06 00:00:00.0000, 3.632775476848326E+08, 3.208222050576058E+08, -1.148208800814625E+08,
2460931.500000000, A.D. 2025-Sep-13 00:00:00.0000, 3.562296597014965E+08, 3.272698957764982E+08, -1.150137631447872E+08,
2460938.500000000, A.D. 2025-Sep-20 00:00:00.0000, 3.490410426285260E+08, 3.335883311779662E+08, -1.151612106309074E+08,
2460945.500000000, A.D. 2025-Sep-27 00:00:00.0000, 3.417138130615764E+08, 3.397743268854498E+08, -1.152629255061156E+08,
2460952.500000000, A.D. 2025-Oct-04 00:00:00.0000, 3.342501561614799E+08, 3.458247088961174E+08, -1.153186228959449E+08,
2460959.500000000, A.D. 2025-Oct-11 00:00:00.0000, 3.266523267671790E+08, 3.517363149770813E+08, -1.153280304521860E+08,
2460966.500000000, A.D. 2025-Oct-18 00:00:00.0000, 3.189226503292397E+08, 3.575059960086774E+08, -1.152908887241177E+08,
2460973.500000000, A.D. 2025-Oct-25 00:00:00.0000, 3.110635238013465E+08, 3.631306172879714E+08, -1.152069515458801E+08,
2460980.500000000, A.D. 2025-Nov-01 00:00:00.0000, 3.030774165268850E+08, 3.686070598101202E+08, -1.150759864423610E+08,
2460987.500000000, A.D. 2025-Nov-08 00:00:00.0000, 2.949668711525841E+08, 3.739322214983423E+08, -1.148977750593172E+08,
2460994.500000000, A.D. 2025-Nov-15 00:00:00.0000, 2.867345047142708E+08, 3.791030183262345E+08, -1.146721136360762E+08,
2461001.500000000, A.D. 2025-Nov-22 00:00:00.0000, 2.783830102946386E+08, 3.841163855550020E+08, -1.143988135398916E+08,
2461008.500000000, A.D. 2025-Nov-29 00:00:00.0000, 2.699151590970623E+08, 3.889692802224283E+08, -1.140777017552056E+08,
2461015.500000000, A.D. 2025-Dec-06 00:00:00.0000, 2.613338006537533E+08, 3.936586847484268E+08, -1.137086211293272E+08,
2461022.500000000, A.D. 2025-Dec-13 00:00:00.0000, 2.526418615968516E+08, 3.981816082900509E+08, -1.132914306894345E+08,
2461029.500000000, A.D. 2025-Dec-20 00:00:00.0000, 2.438423464831953E+08, 4.025350868734694E+08, -1.128260062687553E+08,
2461036.500000000, A.D. 2025-Dec-27 00:00:00.0000, 2.349383395964057E+08, 4.067161848961101E+08, -1.123122411319566E+08,
2461043.500000000, A.D. 2026-Jan-03 00:00:00.0000, 2.259330062630575E+08, 4.107219973851026E+08, -1.117500465158293E+08,
2461050.500000000, A.D. 2026-Jan-10 00:00:00.0000, 2.168295937886612E+08, 4.145496523354794E+08, -1.111393521505496E+08,
2461057.500000000, A.D. 2026-Jan-17 00:00:00.0000, 2.076314322420339E+08, 4.181963130389612E+08, -1.104801067900380E+08,
2461064.500000000, A.D. 2026-Jan-24 00:00:00.0000, 1.983419351617805E+08, 4.216591804281805E+08, -1.097722787562592E+08,
2461071.500000000, A.D. 2026-Jan-31 00:00:00.0000, 1.889646002037818E+08, 4.249354954309574E+08, -1.090158564996280E+08,
2461078.500000000, A.D. 2026-Feb-07 00:00:00.0000, 1.795030097862907E+08, 4.280225412791921E+08, -1.082108491851601E+08,
2461085.500000000, A.D. 2026-Feb-14 00:00:00.0000, 1.699608319804877E+08, 4.309176457590395E+08, -1.073572873281574E+08,
2461092.500000000, A.D. 2026-Feb-21 00:00:00.0000, 1.603418220289364E+08, 4.336181839815038E+08, -1.064552234673538E+08,
2461099.500000000, A.D. 2026-Feb-28 00:00:00.0000, 1.506498234024467E+08, 4.361215828279082E+08, -1.055047326811709E+08,
2461106.500000000, A.D. 2026-Mar-07 00:00:00.0000, 1.408887663305992E+08, 4.384253251190847E+08, -1.045059129159484E+08,
2461113.500000000, A.D. 2026-Mar-14 00:00:00.0000, 1.310626665739413E+08, 4.405269511765454E+08, -1.034588855702474E+08,
2461120.500000000, A.D. 2026-Mar-21 00:00:00.0000, 1.211756262155983E+08, 4.424240606758953E+08, -1.023637962621110E+08,
2461127.500000000, A.D. 2026-Mar-28 00:00:00.0000, 1.112318344580583E+08, 4.441143158203588E+08, -1.012208155100422E+08,
2461134.500000000, A.D. 2026-Apr-04 00:00:00.0000, 1.012355678153145E+08, 4.455954448669440E+08, -1.000301393496267E+08,
2461141.500000000, A.D. 2026-Apr-11 00:00:00.0000, 9.119118996795426E+07, 4.468652456431774E+08, -9.879198993856475E+07,
2461148.500000000, A.D. 2026-Apr-18 00:00:00.0000, 8.110315143385914E+07, 4.479215890448405E+08, -9.750661616314980E+07,
2461155.500000000, A.D. 2026-Apr-25 00:00:00.0000, 7.097598909294508E+07, 4.487624225260256E+08, -9.617429424681237E+07,
2461162.500000000, A.D. 2026-May-02 00:00:00.0000, 6.081432558847846E+07, 4.493857735488119E+08, -9.479532836373782E+07,
2461169.500000000, A.D. 2026-May-09 00:00:00.0000, 5.062286872123291E+07, 4.497897529240419E+08, -9.337005127267849E+07,
2461176.500000000, A.D. 2026-May-16 00:00:00.0000, 4.040641120659186E+07, 4.499725581799628E+08, -9.189882499316925E+07,
2461183.500000000, A.D. 2026-May-23 00:00:00.0000, 3.016983083964615E+07, 4.499324779797743E+08, -9.038204144462062E+07,
2461190.500000000, A.D. 2026-May-30 00:00:00.0000, 1.991808898462910E+07, 4.496678979044310E+08, -8.882012283040251E+07,
2461197.500000000, A.D. 2026-Jun-06 00:00:00.0000, 9.656227064948076E+06, 4.491773043200194E+08, -8.721352200251763E+07,
2461204.500000000, A.D. 2026-Jun-13 00:00:00.0000, -6.106352892737945E+05, 4.484592865231491E+08, -8.556272312451604E+07,
2461211.500000000, A.D. 2026-Jun-20 00:00:00.0000, -1.087730094413395E+07, 4.475125400865300E+08, -8.386824234639820E+07,
2461218.500000000, A.D. 2026-Jun-27 00:00:00.0000, -2.113849651992962E+07, 4.463358710577654E+08, -8.213062836129689E+07,
2461225.500000000, A.D. 2026-Jul-04 00:00:00.0000, -3.138887421158100E+07, 4.449282002281963E+08, -8.035046290460253E+07,
2461232.500000000, A.D. 2026-Jul-11 00:00:00.0000, -4.162301392496932E+07, 4.432885673316466E+08, -7.852836122711660E+07,
2461239.500000000, A.D. 2026-Jul-18 00:00:00.0000, -5.183542564352219E+07, 4.414161351902024E+08, -7.666497254619198E+07,
2461246.500000000, A.D. 2026-Jul-25 00:00:00.0000, -6.202055200728201E+07, 4.393101938005165E+08, -7.476098047434354E+07,
2461253.500000000, A.D. 2026-Aug-01 00:00:00.0000, -7.217277106268798E+07, 4.369701643025524E+08, -7.281710343100573E+07,
2461260.500000000, A.D. 2026-Aug-08 00:00:00.0000, -8.228639897423562E+07, 4.343956027841987E+08, -7.083409505726527E+07,
2461267.500000000, A.D. 2026-Aug-15 00:00:00.0000, -9.235569228890438E+07, 4.315862043610335E+08, -6.881274463199285E+07,
2461274.500000000, A.D. 2026-Aug-22 00:00:00.0000, -1.023748505198156E+08, 4.285418087418269E+08, -6.675387731722581E+07,
2461281.500000000, A.D. 2026-Aug-29 00:00:00.0000, -1.123380213413119E+08, 4.252624058951736E+08, -6.465835413223076E+07,
2461288.500000000, A.D. 2026-Sep-05 00:00:00.0000, -1.222393062646841E+08, 4.217481389329678E+08, -6.252707208211897E+07,
2461295.500000000, A.D. 2026-Sep-12 00:00:00.0000, -1.320727643450916E+08, 4.179993066918468E+08, -6.036096445884757E+07,
$$EOE